[{"OBJECT_NAME":"STARLINK-6341","OBJECT_ID":"2023-078V","EPOCH":"2026-03-09T23:12:07.309728","MEAN_MOTION":14.9832757,"ECCENTRICITY":0.00028597,"INCLINATION":70.0001,"RA_OF_ASC_NODE":323.8155,"ARG_OF_PERICENTER":265.5621,"MEAN_ANOMALY":94.5211,"EPHEMERIS_TYPE":0,"CLASSIFICATION_TYPE":"U","NORAD_CAT_ID":56786,"ELEMENT_SET_NO":999,"REV_AT_EPOCH":15321,"BSTAR":-2.7486414e-5,"MEAN_MOTION_DOT":-4.21e-6,"MEAN_MOTION_DDOT":0},{"OBJECT_NAME":"CZ-2D R\/B","OBJECT_ID":"2018-048C","EPOCH":"2026-03-09T15:04:20.679168","MEAN_MOTION":14.94740995,"ECCENTRICITY":0.001273,"INCLINATION":97.5865,"RA_OF_ASC_NODE":101.6245,"ARG_OF_PERICENTER":129.2773,"MEAN_ANOMALY":230.9579,"EPHEMERIS_TYPE":0,"CLASSIFICATION_TYPE":"U","NORAD_CAT_ID":43486,"ELEMENT_SET_NO":999,"REV_AT_EPOCH":42028,"BSTAR":0.00054527,"MEAN_MOTION_DOT":5.879e-5,"MEAN_MOTION_DDOT":0}]
